UMBRA-07                
1 58297U 23174AT  26188.72399225  .00005385  00000+0  33944-3 0  9998
2 58297  97.3777 243.7121 0003021  39.3663 320.7785 15.09529434146510
UMBRA-09                
1 60541U 24149CB  26188.76093575  .00009014  00000+0  43782-3 0  9993
2 60541  97.6954 276.3288 0001324 218.8821 141.2318 15.18691530103849
UMBRA-10                
1 60547U 24149CH  26188.76048856  .00009859  00000+0  47837-3 0  9993
2 60547  97.6972 276.3559 0001119 173.1811 186.9438 15.18698830103850
UMBRA-11                
1 66748U 25276CL  26188.76590356  .00014606  00000+0  54396-3 0  9995
2 66748  97.4187 263.2792 0001994 207.2410 152.8725 15.27568642 33630
UMBRA-12                
1 67371U 26004J   26188.73219797  .00003094  00000+0  33052-3 0  9997
2 67371  97.8020 187.2188 0007793  72.6591 287.5479 14.89492489 26360
