{"fetched_at":"2026-07-08T07:04:25.100Z","source":"https://celestrak.org/NORAD/elements/gp.php?NAME=UMBRA&FORMAT=JSON","constellation":"umbra","records":[{"OBJECT_NAME":"UMBRA-07","OBJECT_ID":"2023-174AT","EPOCH":"2026-07-07T17:22:32.930400","CLASSIFICATION_TYPE":"U","MEAN_MOTION":15.09529434,"ECCENTRICITY":0.0003021,"INCLINATION":97.3777,"RA_OF_ASC_NODE":243.7121,"ARG_OF_PERICENTER":39.3663,"MEAN_ANOMALY":320.7785,"EPHEMERIS_TYPE":0,"NORAD_CAT_ID":58297,"ELEMENT_SET_NO":999,"REV_AT_EPOCH":14651,"BSTAR":0.00033944,"MEAN_MOTION_DOT":0.00005385,"MEAN_MOTION_DDOT":0},{"OBJECT_NAME":"UMBRA-09","OBJECT_ID":"2024-149CB","EPOCH":"2026-07-07T18:15:44.848800","CLASSIFICATION_TYPE":"U","MEAN_MOTION":15.1869153,"ECCENTRICITY":0.0001324,"INCLINATION":97.6954,"RA_OF_ASC_NODE":276.3288,"ARG_OF_PERICENTER":218.8821,"MEAN_ANOMALY":141.2318,"EPHEMERIS_TYPE":0,"NORAD_CAT_ID":60541,"ELEMENT_SET_NO":999,"REV_AT_EPOCH":10384,"BSTAR":0.00043782,"MEAN_MOTION_DOT":0.00009014,"MEAN_MOTION_DDOT":0},{"OBJECT_NAME":"UMBRA-10","OBJECT_ID":"2024-149CH","EPOCH":"2026-07-07T18:15:06.211584","CLASSIFICATION_TYPE":"U","MEAN_MOTION":15.1869883,"ECCENTRICITY":0.0001119,"INCLINATION":97.6972,"RA_OF_ASC_NODE":276.3559,"ARG_OF_PERICENTER":173.1811,"MEAN_ANOMALY":186.9438,"EPHEMERIS_TYPE":0,"NORAD_CAT_ID":60547,"ELEMENT_SET_NO":999,"REV_AT_EPOCH":10385,"BSTAR":0.00047837,"MEAN_MOTION_DOT":0.00009859,"MEAN_MOTION_DDOT":0},{"OBJECT_NAME":"UMBRA-11","OBJECT_ID":"2025-276CL","EPOCH":"2026-07-07T18:22:54.067584","CLASSIFICATION_TYPE":"U","MEAN_MOTION":15.27568642,"ECCENTRICITY":0.0001994,"INCLINATION":97.4187,"RA_OF_ASC_NODE":263.2792,"ARG_OF_PERICENTER":207.241,"MEAN_ANOMALY":152.8725,"EPHEMERIS_TYPE":0,"NORAD_CAT_ID":66748,"ELEMENT_SET_NO":999,"REV_AT_EPOCH":3363,"BSTAR":0.00054396,"MEAN_MOTION_DOT":0.00014606,"MEAN_MOTION_DDOT":0},{"OBJECT_NAME":"UMBRA-12","OBJECT_ID":"2026-004J","EPOCH":"2026-07-07T17:34:21.904608","CLASSIFICATION_TYPE":"U","MEAN_MOTION":14.89492489,"ECCENTRICITY":0.0007793,"INCLINATION":97.802,"RA_OF_ASC_NODE":187.2188,"ARG_OF_PERICENTER":72.6591,"MEAN_ANOMALY":287.5479,"EPHEMERIS_TYPE":0,"NORAD_CAT_ID":67371,"ELEMENT_SET_NO":999,"REV_AT_EPOCH":2636,"BSTAR":0.00033052,"MEAN_MOTION_DOT":0.00003094,"MEAN_MOTION_DDOT":0}]}
